*******************************************************************************
Ephemeris / WWW_USER Mon Mar 10 07:07:03 2025 Pasadena, USA      / Horizons    
*******************************************************************************
Target body name: (2019 AK3)                      {source: JPL#8}
Center body name: Earth (399)                     {source: DE441}
Center-site name: Mauna Kea
*******************************************************************************
Start time      : A.D. 2018-Aug-04 05:07:00.0000 UT      
Stop  time      : A.D. 2018-Aug-04 15:49:00.0000 UT      
Step-size       : 1 minutes
*******************************************************************************
Target pole/equ : undefined
Target radii    : undefined                                                    
Center geodetic : 204.5278, 19.8260847, 4.21024   {E-lon(deg),Lat(deg),Alt(km)}
Center cylindric: 204.5278, 6006.35451, 2151.0229 {E-lon(deg),Dxy(km),Dz(km)}
Center pole/equ : ITRF93                          {East-longitude positive}
Center radii    : 6378.137, 6378.137, 6356.752 km {Equator_a, b, pole_c}       
Target primary  : Sun
Vis. interferer : MOON (R_eq= 1737.400) km        {source: DE441}
Rel. light bend : Sun                             {source: DE441}
Rel. lght bnd GM: 1.3271E+11 km^3/s^2                                          
Small-body perts: Yes                             {source: SB441-N16}
Atmos refraction: NO (AIRLESS)
RA format       : HMS
Time format     : CAL 
Calendar mode   : Mixed Julian/Gregorian
RTS-only print  : NO       
EOP file        : eop.250307.p250603                                           
EOP coverage    : DATA-BASED 1962-JAN-20 TO 2025-MAR-07. PREDICTS-> 2025-JUN-02
Units conversion: 1 au= 149597870.700 km, c= 299792.458 km/s, 1 day= 86400.0 s 
Table cut-offs 1: Elevation (-90.0deg=NO ),Airmass (>38.000=NO), Daylight (YES)
Table cut-offs 2: Solar elongation (  0.0,180.0=NO ),Local Hour Angle( 0.0=NO )
Table cut-offs 3: RA/DEC angular rate (     0.0=NO )                           
*******************************************************************************
Initial IAU76/J2000 heliocentric ecliptic osculating elements (au, days, deg.):
  EPOCH=  2458490.5 ! 2019-Jan-07.00 (TDB)         Residual RMS= .10027        
   EC= .4460441123274964   QR= .8736665173848456   TP= 2458534.5649506859      
   OM= 293.7231565418804   W=  230.0622942544228   IN= 4.899135051513321       
  Equivalent ICRF heliocentric cartesian coordinates (au, au/d):
   X=-2.869453413579581E-01  Y= 8.924440573967301E-01  Z= 3.991223626471717E-01
  VX=-1.652766681412374E-02 VY=-9.271695064707189E-03 VZ=-5.840432387800149E-03
Asteroid physical parameters (km, seconds, rotational period in hours):        
   GM= n.a.                RAD= n.a.               ROTPER= n.a.                
   H= 27.                  G= .150                 B-V= n.a.                   
                           ALBEDO= n.a.            STYP= n.a.                  
*******************************************************************************
 Date__(UT)__HR:MN     R.A._________(ICRF)_________DEC
******************************************************
$$SOE
 2018-Aug-04 05:07 C   03 17 05.057869 +23 27 00.22630
 2018-Aug-04 05:08 C   03 17 05.132877 +23 27 00.58006
 2018-Aug-04 05:09 C   03 17 05.207884 +23 27 00.93384
 2018-Aug-04 05:10 C   03 17 05.282891 +23 27 01.28766
 2018-Aug-04 05:11 C   03 17 05.357897 +23 27 01.64151
 2018-Aug-04 05:12 C   03 17 05.432903 +23 27 01.99540
 2018-Aug-04 05:13 C   03 17 05.507908 +23 27 02.34931
 2018-Aug-04 05:14 C   03 17 05.582913 +23 27 02.70326
 2018-Aug-04 05:15 C   03 17 05.657916 +23 27 03.05724
 2018-Aug-04 05:16 C   03 17 05.732920 +23 27 03.41125
 2018-Aug-04 05:17 C   03 17 05.807922 +23 27 03.76529
 2018-Aug-04 05:18 C   03 17 05.882924 +23 27 04.11937
 2018-Aug-04 05:19 C   03 17 05.957925 +23 27 04.47348
 2018-Aug-04 05:20 C   03 17 06.032926 +23 27 04.82762
 2018-Aug-04 05:21 N   03 17 06.107925 +23 27 05.18179
 2018-Aug-04 05:22 N   03 17 06.182924 +23 27 05.53600
 2018-Aug-04 05:23 N   03 17 06.257922 +23 27 05.89024
 2018-Aug-04 05:24 N   03 17 06.332919 +23 27 06.24450
 2018-Aug-04 05:25 N   03 17 06.407916 +23 27 06.59881
 2018-Aug-04 05:26 N   03 17 06.482911 +23 27 06.95314
 2018-Aug-04 05:27 N   03 17 06.557905 +23 27 07.30750
 2018-Aug-04 05:28 N   03 17 06.632899 +23 27 07.66190
 2018-Aug-04 05:29 N   03 17 06.707891 +23 27 08.01633
 2018-Aug-04 05:30 N   03 17 06.782883 +23 27 08.37079
 2018-Aug-04 05:31 N   03 17 06.857873 +23 27 08.72529
 2018-Aug-04 05:32 N   03 17 06.932862 +23 27 09.07981
 2018-Aug-04 05:33 N   03 17 07.007851 +23 27 09.43437
 2018-Aug-04 05:34 N   03 17 07.082838 +23 27 09.78896
 2018-Aug-04 05:35 N   03 17 07.157824 +23 27 10.14358
 2018-Aug-04 05:36 N   03 17 07.232808 +23 27 10.49823
 2018-Aug-04 05:37 N   03 17 07.307792 +23 27 10.85291
 2018-Aug-04 05:38 N   03 17 07.382774 +23 27 11.20763
 2018-Aug-04 05:39 N   03 17 07.457755 +23 27 11.56238
 2018-Aug-04 05:40 N   03 17 07.532735 +23 27 11.91716
 2018-Aug-04 05:41 N   03 17 07.607714 +23 27 12.27197
 2018-Aug-04 05:42 N   03 17 07.682691 +23 27 12.62681
 2018-Aug-04 05:43 N   03 17 07.757667 +23 27 12.98168
 2018-Aug-04 05:44 N   03 17 07.832641 +23 27 13.33659
 2018-Aug-04 05:45 N   03 17 07.907614 +23 27 13.69153
 2018-Aug-04 05:46 N   03 17 07.982586 +23 27 14.04650
 2018-Aug-04 05:47 N   03 17 08.057556 +23 27 14.40150
 2018-Aug-04 05:48 N   03 17 08.132524 +23 27 14.75653
 2018-Aug-04 05:49 A   03 17 08.207492 +23 27 15.11159
 2018-Aug-04 05:50 A   03 17 08.282457 +23 27 15.46668
 2018-Aug-04 05:51 A   03 17 08.357421 +23 27 15.82181
 2018-Aug-04 05:52 A   03 17 08.432383 +23 27 16.17696
 2018-Aug-04 05:53 A   03 17 08.507344 +23 27 16.53215
 2018-Aug-04 05:54 A   03 17 08.582303 +23 27 16.88737
 2018-Aug-04 05:55 A   03 17 08.657261 +23 27 17.24262
 2018-Aug-04 05:56 A   03 17 08.732217 +23 27 17.59790
 2018-Aug-04 05:57 A   03 17 08.807171 +23 27 17.95321
 2018-Aug-04 05:58 A   03 17 08.882123 +23 27 18.30856
 2018-Aug-04 05:59 A   03 17 08.957073 +23 27 18.66393
 2018-Aug-04 06:00 A   03 17 09.032022 +23 27 19.01934
 2018-Aug-04 06:01 A   03 17 09.106969 +23 27 19.37477
 2018-Aug-04 06:02 A   03 17 09.181914 +23 27 19.73024
 2018-Aug-04 06:03 A   03 17 09.256857 +23 27 20.08574
 2018-Aug-04 06:04 A   03 17 09.331798 +23 27 20.44127
 2018-Aug-04 06:05 A   03 17 09.406738 +23 27 20.79682
 2018-Aug-04 06:06 A   03 17 09.481675 +23 27 21.15241
 2018-Aug-04 06:07 A   03 17 09.556610 +23 27 21.50803
 2018-Aug-04 06:08 A   03 17 09.631544 +23 27 21.86368
 2018-Aug-04 06:09 A   03 17 09.706475 +23 27 22.21937
 2018-Aug-04 06:10 A   03 17 09.781405 +23 27 22.57508
 2018-Aug-04 06:11 A   03 17 09.856332 +23 27 22.93082
 2018-Aug-04 06:12 A   03 17 09.931257 +23 27 23.28659
 2018-Aug-04 06:13 A   03 17 10.006180 +23 27 23.64239
 2018-Aug-04 06:14 A   03 17 10.081101 +23 27 23.99823
 2018-Aug-04 06:15 A   03 17 10.156019 +23 27 24.35409
 2018-Aug-04 06:16 A   03 17 10.230936 +23 27 24.70998
 2018-Aug-04 06:17     03 17 10.305850 +23 27 25.06591
 2018-Aug-04 06:18     03 17 10.380762 +23 27 25.42186
 2018-Aug-04 06:19     03 17 10.455672 +23 27 25.77784
 2018-Aug-04 06:20     03 17 10.530579 +23 27 26.13386
 2018-Aug-04 06:21     03 17 10.605484 +23 27 26.48990
 2018-Aug-04 06:22     03 17 10.680387 +23 27 26.84597
 2018-Aug-04 06:23     03 17 10.755287 +23 27 27.20207
 2018-Aug-04 06:24     03 17 10.830185 +23 27 27.55821
 2018-Aug-04 06:25     03 17 10.905080 +23 27 27.91437
 2018-Aug-04 06:26     03 17 10.979973 +23 27 28.27056
 2018-Aug-04 06:27     03 17 11.054864 +23 27 28.62678
 2018-Aug-04 06:28     03 17 11.129752 +23 27 28.98303
 2018-Aug-04 06:29     03 17 11.204637 +23 27 29.33931
 2018-Aug-04 06:30     03 17 11.279520 +23 27 29.69562
 2018-Aug-04 06:31     03 17 11.354401 +23 27 30.05196
 2018-Aug-04 06:32     03 17 11.429278 +23 27 30.40832
 2018-Aug-04 06:33     03 17 11.504154 +23 27 30.76472
 2018-Aug-04 06:34     03 17 11.579026 +23 27 31.12115
 2018-Aug-04 06:35     03 17 11.653896 +23 27 31.47760
 2018-Aug-04 06:36     03 17 11.728763 +23 27 31.83408
 2018-Aug-04 06:37     03 17 11.803627 +23 27 32.19060
 2018-Aug-04 06:38     03 17 11.878489 +23 27 32.54714
 2018-Aug-04 06:39     03 17 11.953348 +23 27 32.90371
 2018-Aug-04 06:40     03 17 12.028204 +23 27 33.26031
 2018-Aug-04 06:41     03 17 12.103057 +23 27 33.61693
 2018-Aug-04 06:42     03 17 12.177908 +23 27 33.97359
 2018-Aug-04 06:43     03 17 12.252755 +23 27 34.33027
 2018-Aug-04 06:44     03 17 12.327600 +23 27 34.68699
 2018-Aug-04 06:45     03 17 12.402442 +23 27 35.04373
 2018-Aug-04 06:46     03 17 12.477281 +23 27 35.40050
 2018-Aug-04 06:47     03 17 12.552116 +23 27 35.75729
 2018-Aug-04 06:48     03 17 12.626949 +23 27 36.11412
 2018-Aug-04 06:49     03 17 12.701779 +23 27 36.47097
 2018-Aug-04 06:50     03 17 12.776606 +23 27 36.82785
 2018-Aug-04 06:51     03 17 12.851430 +23 27 37.18476
 2018-Aug-04 06:52     03 17 12.926251 +23 27 37.54170
 2018-Aug-04 06:53     03 17 13.001068 +23 27 37.89867
 2018-Aug-04 06:54     03 17 13.075883 +23 27 38.25566
 2018-Aug-04 06:55     03 17 13.150694 +23 27 38.61268
 2018-Aug-04 06:56     03 17 13.225502 +23 27 38.96973
 2018-Aug-04 06:57     03 17 13.300307 +23 27 39.32680
 2018-Aug-04 06:58     03 17 13.375109 +23 27 39.68390
 2018-Aug-04 06:59     03 17 13.449908 +23 27 40.04103
 2018-Aug-04 07:00     03 17 13.524703 +23 27 40.39819
 2018-Aug-04 07:01     03 17 13.599495 +23 27 40.75538
 2018-Aug-04 07:02     03 17 13.674283 +23 27 41.11259
 2018-Aug-04 07:03     03 17 13.749069 +23 27 41.46983
 2018-Aug-04 07:04     03 17 13.823851 +23 27 41.82709
 2018-Aug-04 07:05     03 17 13.898630 +23 27 42.18438
 2018-Aug-04 07:06     03 17 13.973405 +23 27 42.54170
 2018-Aug-04 07:07     03 17 14.048177 +23 27 42.89905
 2018-Aug-04 07:08     03 17 14.122945 +23 27 43.25642
 2018-Aug-04 07:09     03 17 14.197710 +23 27 43.61382
